METHANESAT              
1 59101U 24043D   25213.34766482  .00002612  00000+0  24049-3 0  9994
2 59101  97.8049 339.2102 0010766   5.0548 355.0780 14.95568856 76803
GOSAT-GW (IBUKI GW)     
1 64694U 25141A   25214.10245949  .00000795  00000+0  14845-3 0  9995
2 64694  98.0258 152.1623 0001449  84.9224 275.2146 14.67571949  5049
GHGSAT-C1               
1 46278U 20061G   25214.14766525  .00016570  00000+0  27700-3 0  9993
2 46278  97.2474 288.1974 0003301 123.5996 236.5572 15.51978678273710
GHGSAT-C12              
1 64529U 25135B   25214.11874905  .00007042  00000+0  35876-3 0  9995
2 64529  97.4506 327.9829 0005047 188.2578 171.8573 15.17077363  6394
GHGSAT-C13              
1 64548U 25135W   25214.15546752  .00003056  00000+0  15306-3 0  9993
2 64548  97.4531 328.0971 0002545 115.1691 244.9807 15.18133294  6409
GHGSAT-C2               
1 47509U 21006DA  25214.13962019  .00006122  00000+0  19539-3 0  9999
2 47509  97.2651 261.9622 0004655 220.6737 139.4158 15.32840151250897
GHGSAT-C3               
1 52737U 22057F   25214.17897871  .00006948  00000+0  25033-3 0  9994
2 52737  97.6179 345.0883 0007192 159.9174 200.2350 15.28868582176707
GHGSAT-C4               
1 52746U 22057Q   25214.13181360  .00006771  00000+0  24406-3 0  9996
2 52746  97.6108 344.1883 0007715 147.3657 212.8061 15.28860758176702
GHGSAT-C5               
1 52744U 22057N   25214.08271911  .00006194  00000+0  22363-3 0  9999
2 52744  97.6267 346.1936 0008254 158.1217 202.0376 15.28845553176692
GHGSAT-C6               
1 56204U 23054AC  25214.19011527  .00010926  00000+0  25304-3 0  9995
2 56204  97.3256 115.4809 0011051 118.3391 241.8972 15.42556273129110
GHGSAT-C7               
1 56209U 23054AH  25214.20618783  .00008811  00000+0  21018-3 0  9997
2 56209  97.3219 115.0321 0011067 112.2032 248.0390 15.41728192129114
GHGSAT-C8               
1 56186U 23054J   25214.16481846  .00010745  00000+0  24894-3 0  9998
2 56186  97.3226 114.9376 0008022 132.4673 227.7254 15.42579692129096
SENTINEL-5P             
1 42969U 17064A   25213.33796065  .00000063  00000+0  50653-4 0  9991
2 42969  98.7586 153.2525 0001302  82.7995 277.3329 14.19535638404189
ENMAP                   
1 52159U 22033C   25213.91403729  .00000477  00000+0  78402-4 0  9992
2 52159  97.9777 295.7490 0001270  89.3467 270.7888 14.74976126179591
PRISMA                  
1 44072U 19015A   25214.20832618  .00000869  00000+0  11164-3 0  9995
2 44072  97.8733 288.5556 0001235  96.1194 264.0160 14.83654575344756
SENTINEL-2A             
1 40697U 15028A   25214.19372583  .00000105  00000+0  56843-4 0  9999
2 40697  98.5674 288.6219 0001173  95.1830 264.9487 14.30822865528117
SENTINEL-2B             
1 42063U 17013A   25214.18653495  .00000114  00000+0  59946-4 0  9994
2 42063  98.5677 288.5573 0001243  96.4796 263.6528 14.30813097439035
SENTINEL-2C             
1 60989U 24157A   25214.15180905  .00000105  00000+0  56504-4 0  9993
2 60989  98.5666 288.5963 0001204  97.1720 262.9600 14.30823150 47360
LANDSAT 8               
1 39084U 13008A   25214.19261768  .00000302  00000+0  77234-4 0  9991
2 39084  98.2231 284.0987 0001291  88.3943 271.7403 14.57096860663260
LANDSAT 9               
1 49260U 21088A   25214.15827150  .00000368  00000+0  91786-4 0  9994
2 49260  98.2253 284.0676 0001222  88.7131 271.4208 14.57092712204536
TANAGER-1               
1 60507U 24149AR  25214.19946832  .00011472  00000+0  25550-3 0  9998
2 60507  97.4018 299.1647 0009394 236.5524 123.4826 15.43733893 53829
